{
"type": "FeatureCollection",
"name": "Cycle_Routes",
"features": [
{ "type": "Feature", "properties": { "Name": "C1", "description": "good to Edmonton, then bad", "OBJECTID": 21, "LABEL": "C1", "PROGRAMME": "Cycleways", "ROUTE_NAME": "Cycleway 1", "STATUS": "Open", "ROUTE_LENGTH_KM": 19.5, "Shape__Length": 19499.648558939702, "PROGRAMME_UPDATED": "2025-06-05T00:00:00Z" }, "geometry": { "type": "MultiLineString", "coordinates": [ [ [ -0.093012, 51.510878, 0.0 ], [ -0.092129, 51.515109, 0.0 ], [ -0.094596, 51.515724, 0.0 ], [ -0.093081, 51.518523, 0.0 ], [ -0.091183, 51.518079, 0.0 ], [ -0.090186, 51.519519, 0.0 ], [ -0.089688, 51.520725, 0.0 ] ], [ [ -0.089688, 51.520725, 0.0 ], [ -0.089947, 51.520756, 0.0 ] ], [ [ -0.077818, 51.54964, 0.0 ], [ -0.077036, 51.548674, 0.0 ], [ -0.078723, 51.548702, 0.0 ], [ -0.079242, 51.5463, 0.0 ], [ -0.080694, 51.546414, 0.0 ], [ -0.08191, 51.541164, 0.0 ], [ -0.080624, 51.540891, 0.0 ], [ -0.082048, 51.535816, 0.0 ], [ -0.082893, 51.534922, 0.0 ], [ -0.082918, 51.530561, 0.0 ], [ -0.083599, 51.528764, 0.0 ], [ -0.083639, 51.527137, 0.0 ], [ -0.083964, 51.525911, 0.0 ], [ -0.083795, 51.525827, 0.0 ], [ -0.084593, 51.521928, 0.0 ], [ -0.085046, 51.520748, 0.0 ], [ -0.085236, 51.520338, 0.0 ], [ -0.089688, 51.520725, 0.0 ] ], [ [ -0.073692, 51.601927, 0.0 ], [ -0.075378, 51.601658, 0.0 ], [ -0.075308, 51.600919, 0.0 ], [ -0.076052, 51.600752, 0.0 ], [ -0.075844, 51.598491, 0.0 ], [ -0.076136, 51.598406, 0.0 ], [ -0.075588, 51.594288, 0.0 ], [ -0.075969, 51.594177, 0.0 ], [ -0.075796, 51.593814, 0.0 ], [ -0.076683, 51.591626, 0.0 ], [ -0.076774, 51.58946, 0.0 ], [ -0.073906, 51.589008, 0.0 ], [ -0.072826, 51.588613, 0.0 ], [ -0.071723, 51.58703, 0.0 ], [ -0.071529, 51.586164, 0.0 ], [ -0.072078, 51.584446, 0.0 ], [ -0.072811, 51.579737, 0.0 ], [ -0.073558, 51.57948, 0.0 ], [ -0.07382, 51.578738, 0.0 ], [ -0.074455, 51.578757, 0.0 ], [ -0.0744, 51.577308, 0.0 ], [ -0.07563, 51.57758, 0.0 ], [ -0.075801, 51.576603, 0.0 ], [ -0.075515, 51.576535, 0.0 ], [ -0.075699, 51.575954, 0.0 ], [ -0.077312, 51.574308, 0.0 ], [ -0.078277, 51.572984, 0.0 ], [ -0.078665, 51.572001, 0.0 ], [ -0.078726, 51.570563, 0.0 ], [ -0.079883, 51.570492, 0.0 ], [ -0.082189, 51.569873, 0.0 ], [ -0.080992, 51.567453, 0.0 ], [ -0.081113, 51.566304, 0.0 ], [ -0.080897, 51.565248, 0.0 ], [ -0.078689, 51.56219, 0.0 ], [ -0.079021, 51.562169, 0.0 ], [ -0.078883, 51.560305, 0.0 ], [ -0.078864, 51.560089, 0.0 ], [ -0.07856, 51.560111, 0.0 ], [ -0.078368, 51.558156, 0.0 ], [ -0.078813, 51.557867, 0.0 ], [ -0.07889, 51.557409, 0.0 ], [ -0.079408, 51.553668, 0.0 ], [ -0.07908, 51.553231, 0.0 ], [ -0.079047, 51.551953, 0.0 ], [ -0.079361, 51.551698, 0.0 ], [ -0.077817, 51.549649, 0.0 ] ], [ [ -0.063413, 51.617477, 0.0 ], [ -0.061112, 51.623329, 0.0 ] ], [ [ -0.062364, 51.620049, 0.0 ], [ -0.062349, 51.620058, 0.0 ] ], [ [ -0.061112, 51.623329, 0.0 ], [ -0.061159, 51.623249, 0.0 ] ], [ [ -0.060167, 51.624824, 0.0 ], [ -0.060478, 51.62464, 0.0 ], [ -0.061112, 51.623329, 0.0 ] ], [ [ -0.059805, 51.625187, 0.0 ], [ -0.059769, 51.625006, 0.0 ], [ -0.060167, 51.624824, 0.0 ] ], [ [ -0.059805, 51.625187, 0.0 ], [ -0.060279, 51.625248, 0.0 ], [ -0.060617, 51.62511, 0.0 ], [ -0.060598, 51.624876, 0.0 ], [ -0.060167, 51.624824, 0.0 ] ], [ [ -0.059805, 51.625187, 0.0 ], [ -0.058, 51.625831, 0.0 ], [ -0.056993, 51.62675, 0.0 ], [ -0.056284, 51.628123, 0.0 ], [ -0.056169, 51.629803, 0.0 ], [ -0.055913, 51.630383, 0.0 ], [ -0.052384, 51.635171, 0.0 ], [ -0.048385, 51.638774, 0.0 ], [ -0.047212, 51.641515, 0.0 ], [ -0.047145, 51.641739, 0.0 ], [ -0.046343, 51.644576, 0.0 ], [ -0.046979, 51.646601, 0.0 ], [ -0.046369, 51.648344, 0.0 ], [ -0.046325, 51.649711, 0.0 ], [ -0.047546, 51.65224, 0.0 ], [ -0.04846, 51.653514, 0.0 ], [ -0.0485, 51.653928, 0.0 ], [ -0.048303, 51.654797, 0.0 ], [ -0.047306, 51.656813, 0.0 ], [ -0.047123, 51.658726, 0.0 ], [ -0.045601, 51.662495, 0.0 ], [ -0.045062, 51.663601, 0.0 ], [ -0.042776, 51.666665, 0.0 ], [ -0.04273, 51.66671, 0.0 ], [ -0.041412, 51.668441, 0.0 ], [ -0.041184, 51.669705, 0.0 ], [ -0.040021, 51.671862, 0.0 ], [ -0.037905, 51.674309, 0.0 ], [ -0.03609, 51.675798, 0.0 ], [ -0.035451, 51.676537, 0.0 ], [ -0.034926, 51.677182, 0.0 ] ] ] } },
{ "type": "Feature", "properties": { "Name": "C4", "description": "Separated but occasional bollard ", "OBJECTID": 105, "LABEL": "C4", "PROGRAMME": "Cycleways", "ROUTE_NAME": "Cycleway 4", "STATUS": "Open", "ROUTE_LENGTH_KM": 2.98, "Shape__Length": 2979.5129111576798, "PROGRAMME_UPDATED": "2025-06-05T00:00:00Z" }, "geometry": { "type": "MultiLineString", "coordinates": [ [ [ -0.072542, 51.500076, 0.0 ], [ -0.069734, 51.498681, 0.0 ], [ -0.068582, 51.498311, 0.0 ], [ -0.066721, 51.498029, 0.0 ], [ -0.064961, 51.498081, 0.0 ], [ -0.055463, 51.499173, 0.0 ], [ -0.055008, 51.499049, 0.0 ], [ -0.05502, 51.498752, 0.0 ], [ -0.055567, 51.498762, 0.0 ], [ -0.055698, 51.499078, 0.0 ] ], [ [ -0.073907, 51.500503, 0.0 ], [ -0.075958, 51.501418, 0.0 ], [ -0.078515, 51.502971, 0.0 ], [ -0.08208, 51.504207, 0.0 ], [ -0.085949, 51.505745, 0.0 ], [ -0.086524, 51.506123, 0.0 ], [ -0.088169, 51.50642, 0.0 ], [ -0.087038, 51.509684, 0.0 ] ] ] } },
{ "type": "Feature", "properties": { "Name": "C4", "description": "separated but occasional bollard ", "OBJECTID": 40, "LABEL": "C4", "PROGRAMME": "Cycleways", "ROUTE_NAME": "Cycleway 4", "STATUS": "Open", "ROUTE_LENGTH_KM": 1.33, "Shape__Length": 1333.72792587093, "PROGRAMME_UPDATED": "2025-06-05T00:00:00Z" }, "geometry": { "type": "LineString", "coordinates": [ [ -0.042168, 51.490022, 0.0 ], [ -0.045402, 51.492217, 0.0 ], [ -0.047667, 51.493495, 0.0 ], [ -0.050139, 51.494634, 0.0 ], [ -0.055267, 51.498712, 0.0 ] ] } },
{ "type": "Feature", "properties": { "Name": "C4", "description": "Separated but occasional bollard ", "OBJECTID": 102, "LABEL": "C4", "PROGRAMME": "Cycleways", "ROUTE_NAME": "Cycleway 4", "STATUS": "Open", "ROUTE_LENGTH_KM": 2.27, "Shape__Length": 2274.5288452651698, "PROGRAMME_UPDATED": "2025-06-05T00:00:00Z" }, "geometry": { "type": "LineString", "coordinates": [ [ -0.01487, 51.481415, 0.0 ], [ -0.023379, 51.480822, 0.0 ], [ -0.027839, 51.481931, 0.0 ], [ -0.032425, 51.484131, 0.0 ], [ -0.036395, 51.486931, 0.0 ], [ -0.040259, 51.488866, 0.0 ], [ -0.042168, 51.490022, 0.0 ] ] } },
{ "type": "Feature", "properties": { "Name": "C4", "description": "Bollards but some separated", "OBJECTID": 6, "LABEL": "C4", "PROGRAMME": "Cycleways", "ROUTE_NAME": "Cycleway 4", "STATUS": "Open", "ROUTE_LENGTH_KM": 2.17, "Shape__Length": 2165.8963699423398, "PROGRAMME_UPDATED": "2025-06-05T00:00:00Z" }, "geometry": { "type": "LineString", "coordinates": [ [ 0.00158, 51.484778, 0.0 ], [ 0.002456, 51.485366, 0.0 ], [ 0.004301, 51.485082, 0.0 ], [ 0.005536, 51.485313, 0.0 ], [ 0.008415, 51.486262, 0.0 ], [ 0.009399, 51.486362, 0.0 ], [ 0.01486, 51.486079, 0.0 ], [ 0.020062, 51.486799, 0.0 ], [ 0.022663, 51.486646, 0.0 ], [ 0.024083, 51.487162, 0.0 ], [ 0.031376, 51.487926, 0.0 ] ] } },
{ "type": "Feature", "properties": { "Name": "C (to Kings X)", "description": "Potentially interesting ", "OBJECTID": 16, "LABEL": "C", "PROGRAMME": "Cycleways", "ROUTE_NAME": "Cycleways", "STATUS": "Open", "ROUTE_LENGTH_KM": 2.15, "Shape__Length": 2147.1810684706902, "PROGRAMME_UPDATED": "2025-06-05T00:00:00Z" }, "geometry": { "type": "LineString", "coordinates": [ [ -0.128703, 51.533512, 0.0 ], [ -0.123553, 51.534986, 0.0 ], [ -0.122312, 51.535002, 0.0 ], [ -0.122307, 51.53654, 0.0 ], [ -0.122774, 51.538148, 0.0 ], [ -0.12323, 51.538632, 0.0 ], [ -0.124413, 51.539325, 0.0 ], [ -0.124838, 51.539853, 0.0 ], [ -0.125017, 51.541106, 0.0 ], [ -0.125609, 51.542159, 0.0 ], [ -0.127006, 51.547469, 0.0 ], [ -0.127712, 51.548173, 0.0 ], [ -0.12907, 51.548833, 0.0 ] ] } },
{ "type": "Feature", "properties": { "Name": "C (St Panc)", "description": "Good for wands", "OBJECTID": 17, "LABEL": "C", "PROGRAMME": "Cycleways", "ROUTE_NAME": "Cycleways", "STATUS": "Open", "ROUTE_LENGTH_KM": 1.19, "Shape__Length": 1192.2759248868499, "PROGRAMME_UPDATED": "2025-06-05T00:00:00Z" }, "geometry": { "type": "LineString", "coordinates": [ [ -0.132547, 51.535417, 0.0 ], [ -0.133065, 51.537916, 0.0 ], [ -0.133948, 51.538902, 0.0 ], [ -0.135662, 51.540008, 0.0 ], [ -0.135357, 51.54146, 0.0 ], [ -0.135613, 51.541896, 0.0 ], [ -0.140361, 51.543949, 0.0 ] ] } },
{ "type": "Feature", "properties": { "Name": "C20", "description": "Good for bollards, lonely ", "OBJECTID": 26, "LABEL": "C20", "PROGRAMME": "Cycleways", "ROUTE_NAME": "Cycleway 20", "STATUS": "Open", "ROUTE_LENGTH_KM": 5.73, "Shape__Length": 5728.0116603761899, "PROGRAMME_UPDATED": "2025-06-05T00:00:00Z" }, "geometry": { "type": "LineString", "coordinates": [ [ -0.113621, 51.612684, 0.0 ], [ -0.111451, 51.614501, 0.0 ], [ -0.109699, 51.61459, 0.0 ], [ -0.10906, 51.617808, 0.0 ], [ -0.108085, 51.618323, 0.0 ], [ -0.107498, 51.618907, 0.0 ], [ -0.104493, 51.623058, 0.0 ], [ -0.103955, 51.62349, 0.0 ], [ -0.101845, 51.624202, 0.0 ], [ -0.099513, 51.625729, 0.0 ], [ -0.096617, 51.630709, 0.0 ], [ -0.095668, 51.631628, 0.0 ], [ -0.095036, 51.631888, 0.0 ], [ -0.094612, 51.632331, 0.0 ], [ -0.093838, 51.634935, 0.0 ], [ -0.092247, 51.635323, 0.0 ], [ -0.090566, 51.636473, 0.0 ], [ -0.086546, 51.63585, 0.0 ], [ -0.084594, 51.635864, 0.0 ], [ -0.083243, 51.636039, 0.0 ], [ -0.081862, 51.636574, 0.0 ], [ -0.080755, 51.637464, 0.0 ], [ -0.080061, 51.638496, 0.0 ], [ -0.07967, 51.639875, 0.0 ], [ -0.078878, 51.641166, 0.0 ], [ -0.080449, 51.643664, 0.0 ], [ -0.081758, 51.644837, 0.0 ], [ -0.079667, 51.647114, 0.0 ], [ -0.079877, 51.648551, 0.0 ], [ -0.081526, 51.648458, 0.0 ], [ -0.081748, 51.649611, 0.0 ], [ -0.081826, 51.650016, 0.0 ], [ -0.081864, 51.650613, 0.0 ] ] } },
{ "type": "Feature", "properties": { "Name": "C38", "description": "Quite good on Lv Rd", "OBJECTID": 38, "LABEL": "C38", "PROGRAMME": "Cycleways", "ROUTE_NAME": "Cycleway 38", "STATUS": "Open", "ROUTE_LENGTH_KM": 2.03, "Shape__Length": 2030.1481334417399, "PROGRAMME_UPDATED": "2025-06-05T00:00:00Z" }, "geometry": { "type": "LineString", "coordinates": [ [ -0.107847, 51.548978, 0.0 ], [ -0.109815, 51.548128, 0.0 ], [ -0.10718, 51.544201, 0.0 ], [ -0.106039, 51.541116, 0.0 ], [ -0.106778, 51.538934, 0.0 ], [ -0.107115, 51.534641, 0.0 ], [ -0.111496, 51.534001, 0.0 ] ] } },
{ "type": "Feature", "properties": { "Name": "C55", "description": "could bollard ", "OBJECTID": 48, "LABEL": "C55", "PROGRAMME": "Cycleways", "ROUTE_NAME": "Cycleway 55", "STATUS": "Open", "ROUTE_LENGTH_KM": 0.72, "Shape__Length": 720.91568327670495, "PROGRAMME_UPDATED": "2025-06-05T00:00:00Z" }, "geometry": { "type": "LineString", "coordinates": [ [ -0.172302, 51.512015, 0.0 ], [ -0.172013, 51.51166, 0.0 ], [ -0.170458, 51.511635, 0.0 ], [ -0.166084, 51.51216, 0.0 ], [ -0.162348, 51.512246, 0.0 ] ] } },
{ "type": "Feature", "properties": { "Name": "C55", "description": "could ", "OBJECTID": 49, "LABEL": "C55", "PROGRAMME": "Cycleways", "ROUTE_NAME": "Cycleway 55", "STATUS": "Open", "ROUTE_LENGTH_KM": 1.44, "Shape__Length": 1435.2486763843499, "PROGRAMME_UPDATED": "2025-06-05T00:00:00Z" }, "geometry": { "type": "LineString", "coordinates": [ [ -0.162348, 51.512246, 0.0 ], [ -0.158759, 51.512612, 0.0 ], [ -0.158507, 51.512428, 0.0 ], [ -0.157437, 51.510379, 0.0 ], [ -0.152213, 51.506277, 0.0 ], [ -0.151895, 51.505247, 0.0 ], [ -0.152194, 51.504254, 0.0 ], [ -0.152905, 51.503429, 0.0 ] ] } },
{ "type": "Feature", "properties": { "Name": "C57", "description": "Good", "OBJECTID": 51, "LABEL": "C57", "PROGRAMME": "Cycleways", "ROUTE_NAME": "Cycleway 57", "STATUS": "Open", "ROUTE_LENGTH_KM": 1.88, "Shape__Length": 1883.11082862751, "PROGRAMME_UPDATED": "2025-06-05T00:00:00Z" }, "geometry": { "type": "LineString", "coordinates": [ [ -0.227973, 51.490522, 0.0 ], [ -0.236265, 51.482437, 0.0 ], [ -0.239317, 51.475361, 0.0 ] ] } },
{ "type": "Feature", "properties": { "Name": "C6", "description": "very nice", "OBJECTID": 52, "LABEL": "C6", "PROGRAMME": "Cycleways", "ROUTE_NAME": "Cycleway 6", "STATUS": "Open", "ROUTE_LENGTH_KM": 1.15, "Shape__Length": 1147.7966099995101, "PROGRAMME_UPDATED": "2025-06-05T00:00:00Z" }, "geometry": { "type": "LineString", "coordinates": [ [ -0.155831, 51.545686, 0.0 ], [ -0.156765, 51.546226, 0.0 ], [ -0.156991, 51.546313, 0.0 ], [ -0.157705, 51.546537, 0.0 ], [ -0.158405, 51.546808, 0.0 ], [ -0.158931, 51.547035, 0.0 ], [ -0.159721, 51.547375, 0.0 ], [ -0.162123, 51.548977, 0.0 ], [ -0.164523, 51.550247, 0.0 ], [ -0.166977, 51.55196, 0.0 ], [ -0.167076, 51.552026, 0.0 ], [ -0.167201, 51.552121, 0.0 ], [ -0.167257, 51.552161, 0.0 ], [ -0.16736, 51.552235, 0.0 ], [ -0.16748, 51.552326, 0.0 ], [ -0.167573, 51.552391, 0.0 ], [ -0.167733, 51.552484, 0.0 ], [ -0.167967, 51.552608, 0.0 ] ] } },
{ "type": "Feature", "properties": { "Name": "C6", "description": "very nice", "OBJECTID": 53, "LABEL": "C6", "PROGRAMME": "Cycleways", "ROUTE_NAME": "Cycleway 6", "STATUS": "Open", "ROUTE_LENGTH_KM": 0.82, "Shape__Length": 820.28538317774496, "PROGRAMME_UPDATED": "2025-06-05T00:00:00Z" }, "geometry": { "type": "LineString", "coordinates": [ [ -0.144159, 51.546653, 0.0 ], [ -0.146011, 51.546512, 0.0 ], [ -0.148425, 51.546019, 0.0 ], [ -0.1542, 51.545819, 0.0 ], [ -0.155352, 51.545757, 0.0 ], [ -0.155822, 51.545695, 0.0 ] ] } },
{ "type": "Feature", "properties": { "Name": "C6", "description": "intermittent ", "OBJECTID": 54, "LABEL": "C6", "PROGRAMME": "Cycleways", "ROUTE_NAME": "Cycleway 6", "STATUS": "Open", "ROUTE_LENGTH_KM": 7.93, "Shape__Length": 7928.6624389321796, "PROGRAMME_UPDATED": "2025-06-05T00:00:00Z" }, "geometry": { "type": "MultiLineString", "coordinates": [ [ [ -0.101205, 51.495072, 0.0 ], [ -0.105714, 51.496476, 0.0 ], [ -0.107677, 51.497425, 0.0 ], [ -0.106014, 51.497928, 0.0 ], [ -0.104821, 51.498565, 0.0 ], [ -0.104659, 51.499336, 0.0 ], [ -0.104377, 51.50613, 0.0 ], [ -0.104402, 51.508819, 0.0 ], [ -0.104374, 51.510142, 0.0 ], [ -0.104372, 51.510662, 0.0 ], [ -0.104379, 51.511424, 0.0 ], [ -0.104239, 51.511648, 0.0 ], [ -0.104153, 51.511864, 0.0 ], [ -0.104149, 51.513357, 0.0 ], [ -0.105682, 51.51982, 0.0 ] ], [ [ -0.105682, 51.51982, 0.0 ], [ -0.106245, 51.521187, 0.0 ], [ -0.107409, 51.522672, 0.0 ], [ -0.107923, 51.523139, 0.0 ], [ -0.108964, 51.523057, 0.0 ] ], [ [ -0.108964, 51.523057, 0.0 ], [ -0.106208, 51.519658, 0.0 ], [ -0.105682, 51.51982, 0.0 ] ], [ [ -0.108964, 51.523057, 0.0 ], [ -0.109213, 51.522962, 0.0 ], [ -0.111725, 51.523569, 0.0 ], [ -0.112831, 51.524018, 0.0 ], [ -0.1136, 51.524597, 0.0 ], [ -0.114926, 51.526687, 0.0 ], [ -0.115804, 51.527079, 0.0 ], [ -0.116263, 51.527823, 0.0 ], [ -0.123714, 51.526153, 0.0 ], [ -0.124239, 51.527052, 0.0 ], [ -0.126324, 51.529288, 0.0 ], [ -0.127036, 51.53126, 0.0 ], [ -0.128686, 51.533553, 0.0 ], [ -0.130048, 51.534465, 0.0 ], [ -0.132187, 51.53538, 0.0 ], [ -0.133173, 51.535603, 0.0 ], [ -0.137885, 51.541325, 0.0 ], [ -0.14149, 51.545231, 0.0 ] ] ] } },
{ "type": "Feature", "properties": { "Name": "C9", "description": "more segregated", "OBJECTID": 55, "LABEL": "C9", "PROGRAMME": "Cycleways", "ROUTE_NAME": "Cycleway 9", "STATUS": "Open", "ROUTE_LENGTH_KM": 0.45, "Shape__Length": 446.36507726312999, "PROGRAMME_UPDATED": "2025-06-05T00:00:00Z" }, "geometry": { "type": "LineString", "coordinates": [ [ -0.251896, 51.492869, 0.0 ], [ -0.245523, 51.493394, 0.0 ] ] } },
{ "type": "Feature", "properties": { "Name": "C9", "description": "not really a lane", "OBJECTID": 126, "LABEL": "C9", "PROGRAMME": "Cycleways", "ROUTE_NAME": "Cycleway 9", "STATUS": "Open", "ROUTE_LENGTH_KM": 0.61, "Shape__Length": 609.92978159734503, "PROGRAMME_UPDATED": "2025-06-05T00:00:00Z" }, "geometry": { "type": "LineString", "coordinates": [ [ -0.303809, 51.48408, 0.0 ], [ -0.302036, 51.484873, 0.0 ], [ -0.296134, 51.486721, 0.0 ] ] } },
{ "type": "Feature", "properties": { "Name": "C9", "description": "Really good stretch down king street", "OBJECTID": 56, "LABEL": "C9", "PROGRAMME": "Cycleways", "ROUTE_NAME": "Cycleway 9", "STATUS": "Open", "ROUTE_LENGTH_KM": 1.53, "Shape__Length": 1529.7533062197599, "PROGRAMME_UPDATED": "2025-06-05T00:00:00Z" }, "geometry": { "type": "LineString", "coordinates": [ [ -0.245523, 51.493394, 0.0 ], [ -0.242146, 51.49355, 0.0 ], [ -0.238851, 51.493456, 0.0 ], [ -0.233749, 51.492768, 0.0 ], [ -0.228672, 51.492538, 0.0 ], [ -0.225272, 51.492927, 0.0 ], [ -0.224817, 51.492786, 0.0 ], [ -0.224007, 51.493223, 0.0 ] ] } },
{ "type": "Feature", "properties": { "Name": "C9", "description": null, "OBJECTID": 57, "LABEL": "C9", "PROGRAMME": "Cycleways", "ROUTE_NAME": "Cycleway 9", "STATUS": "Open", "ROUTE_LENGTH_KM": 0.77, "Shape__Length": 774.71298482322595, "PROGRAMME_UPDATED": "2025-06-05T00:00:00Z" }, "geometry": { "type": "LineString", "coordinates": [ [ -0.262795, 51.492275, 0.0 ], [ -0.262716, 51.492463, 0.0 ], [ -0.260022, 51.492459, 0.0 ], [ -0.251896, 51.492869, 0.0 ] ] } },
{ "type": "Feature", "properties": { "Name": "C9", "description": "Less good", "OBJECTID": 58, "LABEL": "C9", "PROGRAMME": "Cycleways", "ROUTE_NAME": "Cycleway 9", "STATUS": "Open", "ROUTE_LENGTH_KM": 1.74, "Shape__Length": 1743.9059339446201, "PROGRAMME_UPDATED": "2025-06-05T00:00:00Z" }, "geometry": { "type": "LineString", "coordinates": [ [ -0.286856, 51.489463, 0.0 ], [ -0.285593, 51.49011, 0.0 ], [ -0.280311, 51.489997, 0.0 ], [ -0.277963, 51.490385, 0.0 ], [ -0.272928, 51.490581, 0.0 ], [ -0.269155, 51.49093, 0.0 ], [ -0.263768, 51.491696, 0.0 ], [ -0.263316, 51.491833, 0.0 ], [ -0.262795, 51.492275, 0.0 ] ] } },
{ "type": "Feature", "properties": { "Name": "C9", "description": "mostly separate", "OBJECTID": 59, "LABEL": "C9", "PROGRAMME": "Cycleways", "ROUTE_NAME": "Cycleway 9", "STATUS": "Open", "ROUTE_LENGTH_KM": 0.72, "Shape__Length": 717.53163469406695, "PROGRAMME_UPDATED": "2025-06-05T00:00:00Z" }, "geometry": { "type": "LineString", "coordinates": [ [ -0.296134, 51.486721, 0.0 ], [ -0.291514, 51.488173, 0.0 ], [ -0.287855, 51.488947, 0.0 ], [ -0.286856, 51.489463, 0.0 ] ] } },
{ "type": "Feature", "properties": { "Name": "CS7", "description": "very suitable to Kennington", "OBJECTID": 61, "LABEL": "CS7", "PROGRAMME": "Cycle Superhighways", "ROUTE_NAME": "Cycle Superhighway 7", "STATUS": "Open", "ROUTE_LENGTH_KM": 12.49, "Shape__Length": 12493.9320218915, "PROGRAMME_UPDATED": "2025-06-05T00:00:00Z" }, "geometry": { "type": "MultiLineString", "coordinates": [ [ [ -0.179103, 51.417274, 0.0 ], [ -0.173544, 51.422862, 0.0 ], [ -0.170619, 51.425155, 0.0 ], [ -0.169301, 51.426816, 0.0 ], [ -0.164032, 51.431958, 0.0 ], [ -0.163636, 51.432842, 0.0 ], [ -0.162763, 51.433827, 0.0 ], [ -0.161179, 51.434935, 0.0 ], [ -0.158859, 51.436086, 0.0 ], [ -0.15703, 51.43755, 0.0 ], [ -0.154812, 51.441193, 0.0 ], [ -0.151358, 51.445123, 0.0 ], [ -0.14979, 51.446177, 0.0 ], [ -0.148291, 51.448357, 0.0 ], [ -0.14802, 51.449018, 0.0 ], [ -0.147714, 51.452322, 0.0 ], [ -0.147248, 51.453151, 0.0 ], [ -0.143552, 51.456987, 0.0 ], [ -0.141464, 51.459489, 0.0 ], [ -0.137657, 51.462118, 0.0 ], [ -0.136131, 51.462489, 0.0 ], [ -0.133121, 51.463566, 0.0 ], [ -0.131085, 51.464432, 0.0 ], [ -0.129786, 51.465212, 0.0 ], [ -0.127756, 51.468012, 0.0 ], [ -0.124725, 51.470302, 0.0 ], [ -0.12199, 51.47274, 0.0 ], [ -0.113271, 51.480954, 0.0 ], [ -0.102946, 51.491345, 0.0 ], [ -0.101814, 51.492226, 0.0 ], [ -0.103013, 51.49319, 0.0 ], [ -0.103039, 51.493604, 0.0 ], [ -0.103604, 51.493541, 0.0 ], [ -0.103281, 51.495065, 0.0 ], [ -0.102959, 51.495536, 0.0 ] ], [ [ -0.093055, 51.510888, 0.0 ], [ -0.094947, 51.507331, 0.0 ], [ -0.095994, 51.50295, 0.0 ], [ -0.096997, 51.502733, 0.0 ], [ -0.097427, 51.502443, 0.0 ], [ -0.099622, 51.499907, 0.0 ], [ -0.100348, 51.497014, 0.0 ], [ -0.10093, 51.497212, 0.0 ], [ -0.101366, 51.496419, 0.0 ], [ -0.102057, 51.496097, 0.0 ], [ -0.102631, 51.495459, 0.0 ] ] ] } },
{ "type": "Feature", "properties": { "Name": "CS8", "description": "struggle for bollards", "OBJECTID": 62, "LABEL": "CS8", "PROGRAMME": "Cycle Superhighways", "ROUTE_NAME": "Cycle Superhighway 8", "STATUS": "Open", "ROUTE_LENGTH_KM": 4.27, "Shape__Length": 4271.3747182932002, "PROGRAMME_UPDATED": "2025-06-05T00:00:00Z" }, "geometry": { "type": "LineString", "coordinates": [ [ -0.192718, 51.456774, 0.0 ], [ -0.192215, 51.457477, 0.0 ], [ -0.191922, 51.458705, 0.0 ], [ -0.188408, 51.460206, 0.0 ], [ -0.18721, 51.461366, 0.0 ], [ -0.18764, 51.461777, 0.0 ], [ -0.185219, 51.461838, 0.0 ], [ -0.184796, 51.461976, 0.0 ], [ -0.184475, 51.462816, 0.0 ], [ -0.181234, 51.464672, 0.0 ], [ -0.179605, 51.465807, 0.0 ], [ -0.17818, 51.467251, 0.0 ], [ -0.177883, 51.468199, 0.0 ], [ -0.175943, 51.469545, 0.0 ], [ -0.174793, 51.469851, 0.0 ], [ -0.17134, 51.470157, 0.0 ], [ -0.168775, 51.471295, 0.0 ], [ -0.162449, 51.472842, 0.0 ], [ -0.160199, 51.473652, 0.0 ], [ -0.154559, 51.474597, 0.0 ], [ -0.151551, 51.475278, 0.0 ], [ -0.152609, 51.476536, 0.0 ], [ -0.149001, 51.477801, 0.0 ] ] } },
{ "type": "Feature", "properties": { "Name": "C8", "description": "Good stretch", "OBJECTID": 63, "LABEL": "C8", "PROGRAMME": "Cycleways", "ROUTE_NAME": "Cycleway 8", "STATUS": "Open", "ROUTE_LENGTH_KM": 3.27, "Shape__Length": 3274.5056293151702, "PROGRAMME_UPDATED": "2025-06-05T00:00:00Z" }, "geometry": { "type": "LineString", "coordinates": [ [ -0.149001, 51.477801, 0.0 ], [ -0.148618, 51.478361, 0.0 ], [ -0.149974, 51.485784, 0.0 ], [ -0.145799, 51.485727, 0.0 ], [ -0.140501, 51.484959, 0.0 ], [ -0.13925, 51.484913, 0.0 ], [ -0.132373, 51.486143, 0.0 ], [ -0.131154, 51.486717, 0.0 ], [ -0.130354, 51.487946, 0.0 ], [ -0.129545, 51.488724, 0.0 ], [ -0.126955, 51.490059, 0.0 ], [ -0.125726, 51.491559, 0.0 ], [ -0.125378, 51.492317, 0.0 ], [ -0.12512, 51.492988, 0.0 ], [ -0.125183, 51.494625, 0.0 ] ] } },
{ "type": "Feature", "properties": { "Name": "C (Hyde Park Corner) ", "description": "could bollard ", "OBJECTID": 74, "LABEL": "C", "PROGRAMME": "Cycleways", "ROUTE_NAME": "Cycleways", "STATUS": "Open", "ROUTE_LENGTH_KM": 1.48, "Shape__Length": 1483.2283888303, "PROGRAMME_UPDATED": "2025-06-05T00:00:00Z" }, "geometry": { "type": "MultiLineString", "coordinates": [ [ [ -0.152905, 51.503429, 0.0 ], [ -0.169919, 51.503875, 0.0 ] ], [ [ -0.174198, 51.503879, 0.0 ], [ -0.169861, 51.503865, 0.0 ] ] ] } },
{ "type": "Feature", "properties": { "Name": "Q (Hyde Park Corner)", "description": "Could bollard", "OBJECTID": 75, "LABEL": "Q", "PROGRAMME": "Quietways", "ROUTE_NAME": "Quietways", "STATUS": "Open", "ROUTE_LENGTH_KM": 1.23, "Shape__Length": 1232.7070819892199, "PROGRAMME_UPDATED": "2025-06-05T00:00:00Z" }, "geometry": { "type": "LineString", "coordinates": [ [ -0.162348, 51.512246, 0.0 ], [ -0.159756, 51.511846, 0.0 ], [ -0.158627, 51.511243, 0.0 ], [ -0.157603, 51.509483, 0.0 ], [ -0.153275, 51.504253, 0.0 ], [ -0.153376, 51.503526, 0.0 ] ] } },
{ "type": "Feature", "properties": { "Name": "C32", "description": "not bad, but alone", "OBJECTID": 86, "LABEL": "C32", "PROGRAMME": "Cycleways", "ROUTE_NAME": "Cycleway 32", "STATUS": "Open", "ROUTE_LENGTH_KM": 0.79, "Shape__Length": 790.77556221973498, "PROGRAMME_UPDATED": "2025-06-05T00:00:00Z" }, "geometry": { "type": "LineString", "coordinates": [ [ -0.265588, 51.400781, 0.0 ], [ -0.275823, 51.403872, 0.0 ] ] } },
{ "type": "Feature", "properties": { "Name": "C32", "description": "not bad, but alone ", "OBJECTID": 87, "LABEL": "C32", "PROGRAMME": "Cycleways", "ROUTE_NAME": "Cycleway 32", "STATUS": "Open", "ROUTE_LENGTH_KM": 0.68, "Shape__Length": 678.24107559353001, "PROGRAMME_UPDATED": "2025-06-05T00:00:00Z" }, "geometry": { "type": "LineString", "coordinates": [ [ -0.265588, 51.400781, 0.0 ], [ -0.260706, 51.399467, 0.0 ], [ -0.256483, 51.398622, 0.0 ] ] } },
{ "type": "Feature", "properties": { "Name": "C11", "description": "potentially useful for connection ", "OBJECTID": 99, "LABEL": "C11", "PROGRAMME": "Cycleways", "ROUTE_NAME": "Cycleway 11", "STATUS": "Open", "ROUTE_LENGTH_KM": 1.23, "Shape__Length": 1233.0310940622301, "PROGRAMME_UPDATED": "2025-06-05T00:00:00Z" }, "geometry": { "type": "LineString", "coordinates": [ [ -0.090319, 51.520807, 0.0 ], [ -0.092372, 51.521021, 0.0 ], [ -0.097296, 51.520121, 0.0 ], [ -0.098142, 51.519873, 0.0 ], [ -0.097991, 51.519691, 0.0 ], [ -0.100516, 51.518608, 0.0 ], [ -0.100692, 51.518188, 0.0 ], [ -0.101075, 51.517988, 0.0 ], [ -0.10155, 51.517995, 0.0 ], [ -0.101519, 51.517689, 0.0 ], [ -0.103475, 51.517802, 0.0 ], [ -0.103692, 51.51812, 0.0 ], [ -0.10508, 51.517693, 0.0 ] ] } },
{ "type": "Feature", "properties": { "Name": "C6", "description": "bit rubbish but between good sections", "OBJECTID": 100, "LABEL": "C6", "PROGRAMME": "Cycleways", "ROUTE_NAME": "Cycleway 6", "STATUS": "Open", "ROUTE_LENGTH_KM": 0.34, "Shape__Length": 343.14459620010501, "PROGRAMME_UPDATED": "2025-06-05T00:00:00Z" }, "geometry": { "type": "LineString", "coordinates": [ [ -0.141507, 51.545191, 0.0 ], [ -0.14397, 51.545283, 0.0 ], [ -0.143885, 51.546658, 0.0 ], [ -0.144159, 51.546653, 0.0 ] ] } },
{ "type": "Feature", "properties": { "Name": "C (Vauxhall Bridge)", "description": "Could be nice for looping around", "OBJECTID": 123, "LABEL": "C", "PROGRAMME": "Cycleways", "ROUTE_NAME": "Cycleways", "STATUS": "Open", "ROUTE_LENGTH_KM": 0.86, "Shape__Length": 856.15178672528202, "PROGRAMME_UPDATED": "2025-06-05T00:00:00Z" }, "geometry": { "type": "LineString", "coordinates": [ [ -0.121601, 51.486088, 0.0 ], [ -0.123905, 51.48644, 0.0 ], [ -0.125484, 51.486924, 0.0 ], [ -0.130861, 51.489303, 0.0 ], [ -0.132132, 51.489916, 0.0 ] ] } }
]
}
